[{"OBJECT_NAME":"COSMOS 2566","OBJECT_ID":"2022-163C","EPOCH":"2026-03-09T21:48:06.708672","MEAN_MOTION":13.97695206,"ECCENTRICITY":0.0007804,"INCLINATION":67.1457,"RA_OF_ASC_NODE":343.8663,"ARG_OF_PERICENTER":202.0486,"MEAN_ANOMALY":158.0264,"EPHEMERIS_TYPE":0,"CLASSIFICATION_TYPE":"U","NORAD_CAT_ID":54383,"ELEMENT_SET_NO":999,"REV_AT_EPOCH":16669,"BSTAR":7.7007e-5,"MEAN_MOTION_DOT":3.3e-7,"MEAN_MOTION_DDOT":0},{"OBJECT_NAME":"FENGYUN 1C DEB","OBJECT_ID":"1999-025CXR","EPOCH":"2026-03-05T00:18:42.164928","MEAN_MOTION":14.09325657,"ECCENTRICITY":0.00513746,"INCLINATION":99.5306,"RA_OF_ASC_NODE":175.5056,"ARG_OF_PERICENTER":156.022,"MEAN_ANOMALY":204.3357,"EPHEMERIS_TYPE":0,"CLASSIFICATION_TYPE":"U","NORAD_CAT_ID":32324,"ELEMENT_SET_NO":999,"REV_AT_EPOCH":65157,"BSTAR":0.00072205248,"MEAN_MOTION_DOT":1.224e-5,"MEAN_MOTION_DDOT":0}]
